{
    "links": {
        "self": "http://www.neowsapp.com/rest/v1/neo/3772997?api_key=iIulBulltgU6a56xZRHN4H3l9WmuAYTsLGpBGhQ2"
    },
    "id": "3772997",
    "neo_reference_id": "3772997",
    "name": "(2017 FA102)",
    "designation": "2017 FA102",
    "nasa_jpl_url": "http://ssd.jpl.nasa.gov/sbdb.cgi?sstr=3772997",
    "absolute_magnitude_h": 25.5,
    "estimated_diameter": {
        "kilometers": {
            "estimated_diameter_min": 0.0211132445,
            "estimated_diameter_max": 0.0472106499
        },
        "meters": {
            "estimated_diameter_min": 21.113244479,
            "estimated_diameter_max": 47.2106498806
        },
        "miles": {
            "estimated_diameter_min": 0.0131191578,
            "estimated_diameter_max": 0.0293353287
        },
        "feet": {
            "estimated_diameter_min": 69.2691770164,
            "estimated_diameter_max": 154.8905885541
        }
    },
    "is_potentially_hazardous_asteroid": false,
    "close_approach_data": [
        {
            "close_approach_date": "2017-04-04",
            "close_approach_date_full": "2017-Apr-04 17:18",
            "epoch_date_close_approach": 1491326280000,
            "relative_velocity": {
                "kilometers_per_second": "15.2459011232",
                "kilometers_per_hour": "54885.2440435146",
                "miles_per_hour": "34103.5562224827"
            },
            "miss_distance": {
                "astronomical": "0.0363990088",
                "lunar": "14.1592144232",
                "kilometers": "5445214.186591256",
                "miles": "3383499.2006050928"
            },
            "orbiting_body": "Earth"
        }
    ],
    "orbital_data": {
        "orbit_id": "3",
        "orbit_determination_date": "2017-04-06 08:19:00",
        "first_observation_date": "2017-03-21",
        "last_observation_date": "2017-04-03",
        "data_arc_in_days": 13,
        "observations_used": 27,
        "orbit_uncertainty": "8",
        "minimum_orbit_intersection": ".00296969",
        "jupiter_tisserand_invariant": "3.699",
        "epoch_osculation": "2457836.5",
        "eccentricity": ".5751713977849745",
        "semi_major_axis": "1.924267886785554",
        "inclination": ".3339860627577217",
        "ascending_node_longitude": "228.2681768273893",
        "orbital_period": "974.9822856918769",
        "perihelion_distance": ".8174840366303679",
        "perihelion_argument": "29.88252211975924",
        "aphelion_distance": "3.031051736940741",
        "perihelion_time": "2457890.644643025290",
        "mean_anomaly": "340.0077685767673",
        "mean_motion": ".3692374777296935",
        "equinox": "J2000",
        "orbit_class": {
            "orbit_class_type": "APO",
            "orbit_class_description": "Near-Earth asteroid orbits which cross the Earth’s orbit similar to that of 1862 Apollo",
            "orbit_class_range": "a (semi-major axis) > 1.0 AU; q (perihelion) < 1.017 AU"
        }
    },
    "is_sentry_object": false
}